KUIPER-00035            
1 63748U 25088AA  25216.58335648 -.00034677  00000+0 -30550-2 0  9992
2 63748  51.8909 354.8062 0004674  82.6560 175.6232 14.95946427 15348
KUIPER-00037            
1 63749U 25088AB  25216.58335648 -.00835983  00000+0 -75170-1 0  9998
2 63749  51.8955 353.9991 0005390  22.9076 166.3403 14.98045740 16143
KUIPER-00038            
1 63750U 25088AC  25216.58335648 -.01352228  00000+0 -47153-1 0  9997
2 63750  51.8736 346.3286 0004998  84.1759 307.8510 15.32091084 15259
KUIPER-00039            
1 64500U 25134A   25215.79976870  .00025353  00000+0  73910-3 0  9998
2 64500  51.8673 131.8056 0007039 258.6986 101.3209 15.35188810  7591
KUIPER-00040            
1 64501U 25134B   25215.91668981 -.00017334  00000+0 -87199-3 0  9990
2 64501  51.8785 132.6692 0012703 268.9737  22.5099 15.16125888  5722
KUIPER-00041            
1 64502U 25134C   25215.83574656  .00014877  00000+0  77160-3 0  9991
2 64502  51.8730 133.4135 0008270 264.9127  95.0907 15.16322587  7570
KUIPER-00042            
1 64503U 25134D   25216.58335648 -.00453214  00000+0 -20049-1 0  9997
2 64503  51.8719 128.6525 0010173 262.1379 162.7840 15.23169599  7243
KUIPER-00043            
1 64504U 25134E   25216.06304646  .00004491  00000+0  14188-3 0  9991
2 64504  51.8692 130.5731 0007810 259.4977 100.5129 15.34848618  7554
