<?xml version="1.0" encoding="UTF-8"?>
<ndm xmlns:xsi="http://www.w3.org/2001/XMLSchema-instance" xsi:noNamespaceSchemaLocation="https://sanaregistry.org/r/ndmxml_unqualified/ndmxml-2.0.0-master-2.0.xsd">
<omm id="CCSDS_OMM_VERS" version="2.0">
<header><CREATION_DATE/><ORIGINATOR/></header><body><segment><metadata><OBJECT_NAME>KUIPER-00035</OBJECT_NAME><OBJECT_ID>2025-088AA</OBJECT_ID><CENTER_NAME>EARTH</CENTER_NAME><REF_FRAME>TEME</REF_FRAME><TIME_SYSTEM>UTC</TIME_SYSTEM><MEAN_ELEMENT_THEORY>SGP4</MEAN_ELEMENT_THEORY></metadata><data><meanElements><EPOCH>2025-08-04T14:00:01.999872</EPOCH><MEAN_MOTION>14.95946427</MEAN_MOTION><ECCENTRICITY>.0004674</ECCENTRICITY><INCLINATION>51.8909</INCLINATION><RA_OF_ASC_NODE>354.8062</RA_OF_ASC_NODE><ARG_OF_PERICENTER>82.6560</ARG_OF_PERICENTER><MEAN_ANOMALY>175.6232</MEAN_ANOMALY></meanElements><tleParameters><EPHEMERIS_TYPE>0</EPHEMERIS_TYPE><CLASSIFICATION_TYPE>U</CLASSIFICATION_TYPE><NORAD_CAT_ID>63748</NORAD_CAT_ID><ELEMENT_SET_NO>999</ELEMENT_SET_NO><REV_AT_EPOCH>1534</REV_AT_EPOCH><BSTAR>-.3055E-2</BSTAR><MEAN_MOTION_DOT>-.34677E-3</MEAN_MOTION_DOT><MEAN_MOTION_DDOT>0</MEAN_MOTION_DDOT></tleParameters></data></segment></body></omm>
<omm id="CCSDS_OMM_VERS" version="2.0">
<header><CREATION_DATE/><ORIGINATOR/></header><body><segment><metadata><OBJECT_NAME>KUIPER-00037</OBJECT_NAME><OBJECT_ID>2025-088AB</OBJECT_ID><CENTER_NAME>EARTH</CENTER_NAME><REF_FRAME>TEME</REF_FRAME><TIME_SYSTEM>UTC</TIME_SYSTEM><MEAN_ELEMENT_THEORY>SGP4</MEAN_ELEMENT_THEORY></metadata><data><meanElements><EPOCH>2025-08-04T14:00:01.999872</EPOCH><MEAN_MOTION>14.98045740</MEAN_MOTION><ECCENTRICITY>.000539</ECCENTRICITY><INCLINATION>51.8955</INCLINATION><RA_OF_ASC_NODE>353.9991</RA_OF_ASC_NODE><ARG_OF_PERICENTER>22.9076</ARG_OF_PERICENTER><MEAN_ANOMALY>166.3403</MEAN_ANOMALY></meanElements><tleParameters><EPHEMERIS_TYPE>0</EPHEMERIS_TYPE><CLASSIFICATION_TYPE>U</CLASSIFICATION_TYPE><NORAD_CAT_ID>63749</NORAD_CAT_ID><ELEMENT_SET_NO>999</ELEMENT_SET_NO><REV_AT_EPOCH>1614</REV_AT_EPOCH><BSTAR>-.7517E-1</BSTAR><MEAN_MOTION_DOT>-.835983E-2</MEAN_MOTION_DOT><MEAN_MOTION_DDOT>0</MEAN_MOTION_DDOT></tleParameters></data></segment></body></omm>
<omm id="CCSDS_OMM_VERS" version="2.0">
<header><CREATION_DATE/><ORIGINATOR/></header><body><segment><metadata><OBJECT_NAME>KUIPER-00038</OBJECT_NAME><OBJECT_ID>2025-088AC</OBJECT_ID><CENTER_NAME>EARTH</CENTER_NAME><REF_FRAME>TEME</REF_FRAME><TIME_SYSTEM>UTC</TIME_SYSTEM><MEAN_ELEMENT_THEORY>SGP4</MEAN_ELEMENT_THEORY></metadata><data><meanElements><EPOCH>2025-08-04T14:00:01.999872</EPOCH><MEAN_MOTION>15.32091084</MEAN_MOTION><ECCENTRICITY>.0004998</ECCENTRICITY><INCLINATION>51.8736</INCLINATION><RA_OF_ASC_NODE>346.3286</RA_OF_ASC_NODE><ARG_OF_PERICENTER>84.1759</ARG_OF_PERICENTER><MEAN_ANOMALY>307.8510</MEAN_ANOMALY></meanElements><tleParameters><EPHEMERIS_TYPE>0</EPHEMERIS_TYPE><CLASSIFICATION_TYPE>U</CLASSIFICATION_TYPE><NORAD_CAT_ID>63750</NORAD_CAT_ID><ELEMENT_SET_NO>999</ELEMENT_SET_NO><REV_AT_EPOCH>1525</REV_AT_EPOCH><BSTAR>-.47153E-1</BSTAR><MEAN_MOTION_DOT>-.1352228E-1</MEAN_MOTION_DOT><MEAN_MOTION_DDOT>0</MEAN_MOTION_DDOT></tleParameters></data></segment></body></omm>
<omm id="CCSDS_OMM_VERS" version="2.0">
<header><CREATION_DATE/><ORIGINATOR/></header><body><segment><metadata><OBJECT_NAME>KUIPER-00039</OBJECT_NAME><OBJECT_ID>2025-134A</OBJECT_ID><CENTER_NAME>EARTH</CENTER_NAME><REF_FRAME>TEME</REF_FRAME><TIME_SYSTEM>UTC</TIME_SYSTEM><MEAN_ELEMENT_THEORY>SGP4</MEAN_ELEMENT_THEORY></metadata><data><meanElements><EPOCH>2025-08-03T19:11:40.015680</EPOCH><MEAN_MOTION>15.35188810</MEAN_MOTION><ECCENTRICITY>.0007039</ECCENTRICITY><INCLINATION>51.8673</INCLINATION><RA_OF_ASC_NODE>131.8056</RA_OF_ASC_NODE><ARG_OF_PERICENTER>258.6986</ARG_OF_PERICENTER><MEAN_ANOMALY>101.3209</MEAN_ANOMALY></meanElements><tleParameters><EPHEMERIS_TYPE>0</EPHEMERIS_TYPE><CLASSIFICATION_TYPE>U</CLASSIFICATION_TYPE><NORAD_CAT_ID>64500</NORAD_CAT_ID><ELEMENT_SET_NO>999</ELEMENT_SET_NO><REV_AT_EPOCH>759</REV_AT_EPOCH><BSTAR>.7391E-3</BSTAR><MEAN_MOTION_DOT>.25353E-3</MEAN_MOTION_DOT><MEAN_MOTION_DDOT>0</MEAN_MOTION_DDOT></tleParameters></data></segment></body></omm>
<omm id="CCSDS_OMM_VERS" version="2.0">
<header><CREATION_DATE/><ORIGINATOR/></header><body><segment><metadata><OBJECT_NAME>KUIPER-00040</OBJECT_NAME><OBJECT_ID>2025-134B</OBJECT_ID><CENTER_NAME>EARTH</CENTER_NAME><REF_FRAME>TEME</REF_FRAME><TIME_SYSTEM>UTC</TIME_SYSTEM><MEAN_ELEMENT_THEORY>SGP4</MEAN_ELEMENT_THEORY></metadata><data><meanElements><EPOCH>2025-08-03T22:00:01.999584</EPOCH><MEAN_MOTION>15.16125888</MEAN_MOTION><ECCENTRICITY>.0012703</ECCENTRICITY><INCLINATION>51.8785</INCLINATION><RA_OF_ASC_NODE>132.6692</RA_OF_ASC_NODE><ARG_OF_PERICENTER>268.9737</ARG_OF_PERICENTER><MEAN_ANOMALY>22.5099</MEAN_ANOMALY></meanElements><tleParameters><EPHEMERIS_TYPE>0</EPHEMERIS_TYPE><CLASSIFICATION_TYPE>U</CLASSIFICATION_TYPE><NORAD_CAT_ID>64501</NORAD_CAT_ID><ELEMENT_SET_NO>999</ELEMENT_SET_NO><REV_AT_EPOCH>572</REV_AT_EPOCH><BSTAR>-.87199E-3</BSTAR><MEAN_MOTION_DOT>-.17334E-3</MEAN_MOTION_DOT><MEAN_MOTION_DDOT>0</MEAN_MOTION_DDOT></tleParameters></data></segment></body></omm>
<omm id="CCSDS_OMM_VERS" version="2.0">
<header><CREATION_DATE/><ORIGINATOR/></header><body><segment><metadata><OBJECT_NAME>KUIPER-00041</OBJECT_NAME><OBJECT_ID>2025-134C</OBJECT_ID><CENTER_NAME>EARTH</CENTER_NAME><REF_FRAME>TEME</REF_FRAME><TIME_SYSTEM>UTC</TIME_SYSTEM><MEAN_ELEMENT_THEORY>SGP4</MEAN_ELEMENT_THEORY></metadata><data><meanElements><EPOCH>2025-08-03T20:03:28.502784</EPOCH><MEAN_MOTION>15.16322587</MEAN_MOTION><ECCENTRICITY>.000827</ECCENTRICITY><INCLINATION>51.8730</INCLINATION><RA_OF_ASC_NODE>133.4135</RA_OF_ASC_NODE><ARG_OF_PERICENTER>264.9127</ARG_OF_PERICENTER><MEAN_ANOMALY>95.0907</MEAN_ANOMALY></meanElements><tleParameters><EPHEMERIS_TYPE>0</EPHEMERIS_TYPE><CLASSIFICATION_TYPE>U</CLASSIFICATION_TYPE><NORAD_CAT_ID>64502</NORAD_CAT_ID><ELEMENT_SET_NO>999</ELEMENT_SET_NO><REV_AT_EPOCH>757</REV_AT_EPOCH><BSTAR>.7716E-3</BSTAR><MEAN_MOTION_DOT>.14877E-3</MEAN_MOTION_DOT><MEAN_MOTION_DDOT>0</MEAN_MOTION_DDOT></tleParameters></data></segment></body></omm>
<omm id="CCSDS_OMM_VERS" version="2.0">
<header><CREATION_DATE/><ORIGINATOR/></header><body><segment><metadata><OBJECT_NAME>KUIPER-00042</OBJECT_NAME><OBJECT_ID>2025-134D</OBJECT_ID><CENTER_NAME>EARTH</CENTER_NAME><REF_FRAME>TEME</REF_FRAME><TIME_SYSTEM>UTC</TIME_SYSTEM><MEAN_ELEMENT_THEORY>SGP4</MEAN_ELEMENT_THEORY></metadata><data><meanElements><EPOCH>2025-08-04T14:00:01.999872</EPOCH><MEAN_MOTION>15.23169599</MEAN_MOTION><ECCENTRICITY>.0010173</ECCENTRICITY><INCLINATION>51.8719</INCLINATION><RA_OF_ASC_NODE>128.6525</RA_OF_ASC_NODE><ARG_OF_PERICENTER>262.1379</ARG_OF_PERICENTER><MEAN_ANOMALY>162.7840</MEAN_ANOMALY></meanElements><tleParameters><EPHEMERIS_TYPE>0</EPHEMERIS_TYPE><CLASSIFICATION_TYPE>U</CLASSIFICATION_TYPE><NORAD_CAT_ID>64503</NORAD_CAT_ID><ELEMENT_SET_NO>999</ELEMENT_SET_NO><REV_AT_EPOCH>724</REV_AT_EPOCH><BSTAR>-.20049E-1</BSTAR><MEAN_MOTION_DOT>-.453214E-2</MEAN_MOTION_DOT><MEAN_MOTION_DDOT>0</MEAN_MOTION_DDOT></tleParameters></data></segment></body></omm>
<omm id="CCSDS_OMM_VERS" version="2.0">
<header><CREATION_DATE/><ORIGINATOR/></header><body><segment><metadata><OBJECT_NAME>KUIPER-00043</OBJECT_NAME><OBJECT_ID>2025-134E</OBJECT_ID><CENTER_NAME>EARTH</CENTER_NAME><REF_FRAME>TEME</REF_FRAME><TIME_SYSTEM>UTC</TIME_SYSTEM><MEAN_ELEMENT_THEORY>SGP4</MEAN_ELEMENT_THEORY></metadata><data><meanElements><EPOCH>2025-08-04T01:30:47.214144</EPOCH><MEAN_MOTION>15.34848618</MEAN_MOTION><ECCENTRICITY>.000781</ECCENTRICITY><INCLINATION>51.8692</INCLINATION><RA_OF_ASC_NODE>130.5731</RA_OF_ASC_NODE><ARG_OF_PERICENTER>259.4977</ARG_OF_PERICENTER><MEAN_ANOMALY>100.5129</MEAN_ANOMALY></meanElements><tleParameters><EPHEMERIS_TYPE>0</EPHEMERIS_TYPE><CLASSIFICATION_TYPE>U</CLASSIFICATION_TYPE><NORAD_CAT_ID>64504</NORAD_CAT_ID><ELEMENT_SET_NO>999</ELEMENT_SET_NO><REV_AT_EPOCH>755</REV_AT_EPOCH><BSTAR>.14188E-3</BSTAR><MEAN_MOTION_DOT>.4491E-4</MEAN_MOTION_DOT><MEAN_MOTION_DDOT>0</MEAN_MOTION_DDOT></tleParameters></data></segment></body></omm>

</ndm>
